NSS-11                  
1 26554U 00059A   26185.89870362  .00000037  00000+0  00000+0 0  9999
2 26554   2.1693  81.1890 0003014  22.1356 319.1068  1.00271990 41461
AMC-6                   
1 26580U 00067A   26185.28377997  .00000100  00000+0  00000+0 0  9997
2 26580   0.1930  83.5317 0003944  29.7815 136.1163  1.00270800 94063
AMC-15                  
1 28446U 04041A   26185.91431916 -.00000076  00000+0  00000+0 0  9991
2 28446   0.0190 334.6561 0002386 134.3782  37.9883  1.00271637 79484
NSS-10                  
1 28526U 05003A   26185.92773866 -.00000241  00000+0  00000+0 0  9997
2 28526   6.4909  70.2385 0002945  32.3203 116.9107  1.00272179 53339
ASTRA 1KR               
1 29055U 06012A   26185.93890249  .00000132  00000+0  00000+0 0  9990
2 29055   0.5168  83.2275 0003562  15.0532 181.6566  1.00272191 45872
ASTRA 1L                
1 31306U 07016A   26185.93025200 -.00000172  00000+0  00000+0 0  9999
2 31306   1.3646  81.4510 0005541  24.8027 127.0778  1.00271065 45162
ASTRA 4A                
1 32299U 07057A   26185.00932565  .00000044  00000+0  00000+0 0  9992
2 32299   0.0106  16.5702 0002561  89.9612 183.6546  1.00272693 51812
ASTRA 1M                
1 33436U 08057A   26185.93890249  .00000133  00000+0  00000+0 0  9990
2 33436   0.3392  82.7110 0004946  34.6124 163.0042  1.00272422 45915
NSS-9                   
1 33749U 09008A   26185.82873993  .00000084  00000+0  00000+0 0  9994
2 33749   1.3044  82.4986 0002239  14.8931 306.8636  1.00272801 63696
SES-7 (PROTOSTAR 2)     
1 34941U 09027A   26183.68624840 -.00000334  00000+0  00000+0 0  9996
2 34941   0.0243  57.4916 0001141 120.3413  98.1720  1.00270101 62787
NSS-12                  
1 36032U 09058A   26185.95697044  .00000084  00000+0  00000+0 0  9992
2 36032   0.0585 277.5310 0004605 153.2141 253.7231  1.00272689 61095
SES-1                   
1 36516U 10016A   26185.91509916 -.00000102  00000+0  00000+0 0  9993
2 36516   0.0400 286.3994 0002756 173.5246  51.4329  1.00271423 59217
ASTRA 3B                
1 36581U 10021A   26185.88960039  .00000149  00000+0  00000+0 0  9994
2 36581   1.5145  83.3400 0004241  16.6856 166.6006  1.00272266 59041
SES-3                   
1 37748U 11035A   26185.91475249 -.00000090  00000+0  00000+0 0  9990
2 37748   1.3697  82.9080 0002249  14.7086  51.6223  1.00271939 54771
ASTRA 1N                
1 37775U 11041A   26183.58642093  .00000130  00000+0  00000+0 0  9995
2 37775   0.0898  44.2622 0005880  55.7608  50.8904  1.00272787 44680
SES-2                   
1 37809U 11049A   26185.91787250 -.00000183  00000+0  00000+0 0  9994
2 37809   0.1014  92.6189 0002912  10.0338  63.7076  1.00271949 54145
QUETZSAT 1              
1 37826U 11054A   26183.56707965 -.00000231  00000+0  00000+0 0  9997
2 37826   0.0341 293.4838 0002997 173.6787 300.5957  1.00271106 50023
SES-4                   
1 38087U 12007A   26183.36433681 -.00000158  00000+0  00000+0 0  9993
2 38087   0.0229  41.5467 0002404  57.1982 290.8171  1.00271083 52377
SES-5                   
1 38652U 12036A   26183.65487642  .00000044  00000+0  00000+0 0  9994
2 38652   0.0450 320.1883 0002267 138.1529  63.0821  1.00270830 44612
ASTRA 2F                
1 38778U 12051A   26185.94072707  .00000163  00000+0  00000+0 0  9998
2 38778   0.0656 251.0642 0002505 285.4313 113.3151  1.00273198 41315
SES-6                   
1 39172U 13026A   26185.92713199 -.00000248  00000+0  00000+0 0  9990
2 39172   0.0179 346.7875 0002628 109.9477 119.4670  1.00271703 47905
O3B FM5                 
1 39188U 13031A   26185.63034948 -.00000012  00000+0  00000+0 0  9998
2 39188   0.0963 338.6115 0002862 110.9037 270.5174  5.00115622237915
O3B FM4                 
1 39189U 13031B   26182.55153905 -.00000018  00000+0  00000+0 0  9998
2 39189   0.0417 346.2021 0005452  96.6045 277.2545  5.00115378237754
O3B FM2                 
1 39190U 13031C   26185.61538030 -.00000012  00000+0  00000+0 0  9990
2 39190   0.0357 342.5965 0002728 117.0224 260.4117  5.00116098237978
O3B PFM                 
1 39191U 13031D   26185.42961113 -.00000013  00000+0  00000+0 0  9993
2 39191   0.0670 348.5881 0005320 105.6700 265.8025  5.00116016237532
ASTRA 2E                
1 39285U 13056A   26185.51302840  .00000163  00000+0  00000+0 0  9995
2 39285   0.0723 317.7137 0002754 162.5208  15.5027  1.00275893 46591
SES-8                   
1 39460U 13071A   26185.98274498 -.00000257  00000+0  00000+0 0  9990
2 39460   0.0376 265.8801 0002934 196.5513 269.3489  1.00271663 44609
ASTRA 5B                
1 39617U 14011B   26183.85175605  .00000148  00000+0  00000+0 0  9991
2 39617   0.0771 302.4799 0002214 165.1332 143.4211  1.00274657 44823
O3B FM3                 
1 40079U 14038A   26185.49629558 -.00000013  00000+0  00000+0 0  9999
2 40079   0.0478 353.0377 0002548 165.3963 201.5765  5.00115715213918
O3B FM7                 
1 40080U 14038B   26185.44241633 -.00000013  00000+0  00000+0 0  9990
2 40080   0.0458 344.1517 0003685  89.3164 286.5721  5.00115677218744
O3B FM6                 
1 40081U 14038C   26185.66928178 -.00000012  00000+0  00000+0 0  9990
2 40081   0.0464 349.9590 0002637 109.2962 260.7744  5.00115813218707
O3B FM8                 
1 40082U 14038D   26185.72252474 -.00000012  00000+0  00000+0 0  9997
2 40082   0.0462 348.6611 0002769 116.0642 255.3052  5.00116106218824
O3B FM10                
1 40348U 14083A   26181.35218119 -.00000020  00000+0  00000+0 0  9994
2 40348   0.0357 330.6093 0002895 132.1065 257.3157  5.00115454210549
O3B FM11                
1 40349U 14083B   26185.76241895 -.00000012  00000+0  00000+0 0  9992
2 40349   0.0552 352.3678 0002599  94.0394 273.6224  5.00115570210791
O3B FM12                
1 40350U 14083C   26184.78996545 -.00000014  00000+0  00000+0 0  9996
2 40350   0.0543 352.6321 0002515 106.6575 260.7383  5.00116012210751
O3B FM9                 
1 40351U 14083D   26185.81624573 -.00000012  00000+0  00000+0 0  9999
2 40351   0.0561 351.5320 0002686 109.2052 259.2929  5.00116033210940
ASTRA 2G                
1 40364U 14089A   26185.94072707  .00000163  00000+0  00000+0 0  9995
2 40364   0.0453 356.8131 0004782  77.6388 215.3504  1.00271001 42141
SES-9                   
1 41380U 16013A   26183.81584606 -.00000334  00000+0  00000+0 0  9994
2 41380   0.0192 321.8365 0002508 134.2194 226.7945  1.00269164 37595
SES-10                  
1 42432U 17017A   26183.56933301 -.00000262  00000+0  00000+0 0  9990
2 42432   0.0186  42.4916 0003014  63.1872 312.9916  1.00273517 33905
SES-15                  
1 42709U 17026A   26183.69960315  .00000071  00000+0  00000+0 0  9993
2 42709   0.0224 333.2991 0000649 116.3241 313.8103  1.00268893  7585
SES-11 (ECHOSTAR 105)   
1 42967U 17063A   26185.91431916 -.00000076  00000+0  00000+0 0  9993
2 42967   0.0164 346.2291 0002822 117.8985  43.0000  1.00271370 31902
SES-14                  
1 43175U 18012B   26183.78702291 -.00000268  00000+0  00000+0 0  9993
2 43175   0.0127  27.7702 0001294  73.8319  55.0474  1.00270755  7182
O3B FM15                
1 43231U 18024A   26185.88305848 -.00000012  00000+0  00000+0 0  9996
2 43231   0.0522   0.5125 0002606 101.9245 257.5920  5.00115820151901
O3B FM16                
1 43232U 18024B   26185.73549439 -.00000012  00000+0  00000+0 0  9997
2 43232   0.0523   5.0790 0002634  95.6172 259.3332  5.00116002151821
O3B FM14                
1 43233U 18024C   26185.77630652 -.00000012  00000+0  00000+0 0  9990
2 43233   0.0511   6.0679 0002885  96.4039 257.5602  5.00115779151836
O3B FM13                
1 43234U 18024D   26185.64229121 -.00000012  00000+0  00000+0 0  9992
2 43234   0.0529 325.4726 0002436  84.6758 309.8728  5.00115717151939
SES-12                  
1 43488U 18049A   26185.98274424 -.00000256  00000+0  00000+0 0  9993
2 43488   0.0107   2.6177 0000620 272.0150  97.1425  1.00270001 29599
O3B FM20                
1 44112U 19020A   26185.60247787 -.00000012  00000+0  00000+0 0  9999
2 44112   0.0523 356.8295 0002388  98.4075 264.7900  5.00115650132441
O3B FM19                
1 44113U 19020B   26185.62949043 -.00000012  00000+0  00000+0 0  9996
2 44113   0.0747 335.9174 0003773 108.9562 275.1692  5.00115972132318
O3B FM17                
1 44114U 19020C   26185.70966366 -.00000012  00000+0  00000+0 0  9993
2 44114   0.0353  10.1467 0002580  91.6478 258.2342  5.00115636132409
O3B FM18                
1 44115U 19020D   26184.65654878 -.00000014  00000+0  00000+0 0  9991
2 44115   0.0528 356.6981 0002769 105.9380 257.3943  5.00115427132475
SES-17                  
1 49332U 21095A   26183.56933301 -.00000261  00000+0  00000+0 0  9996
2 49332   0.0234  42.6033 0001168  57.4223 318.4393  1.00269644 18001
SES-22                  
1 52933U 22071A   26185.40858681  .00000116  00000+0  00000+0 0  9992
2 52933   0.0191  23.7377 0001157  77.3726 189.3978  1.00273063  7699
SES-20                  
1 53960U 22123A   26183.85722998 -.00000090  00000+0  00000+0 0  9991
2 53960   0.0202  63.8433 0002125  32.9601  29.5718  1.00270139 13691
SES-21                  
1 53961U 22123B   26184.98244787  .00000000  00000+0  00000+0 0  9992
2 53961   0.0398  27.6364 0000881  72.3014  44.8135  1.00268272  7389
O3B MPOWER F1           
1 54755U 22174A   26184.52441817 -.00000014  00000+0  00000+0 0  9999
2 54755   0.0504 340.1797 0006557 133.7327 228.0340  5.00114889 66172
O3B MPOWER F2           
1 54756U 22174B   26185.70053909 -.00000012  00000+0  00000+0 0  9990
2 54756   0.0461 340.1515 0005827 118.4587 261.4556  5.00114993 66323
SES-18                  
1 55970U 23038A   26185.62956777 -.00000089  00000+0  00000+0 0  9999
2 55970   0.0353 271.0702 0000154 258.6289 236.4839  1.00272282 12279
SES-19                  
1 55971U 23038B   26183.84867729  .00000098  00000+0  00000+0 0  9999
2 55971   0.0087  29.7739 0001823  69.9213 351.8179  1.00270815 12253
O3B MPOWER F4           
1 56367U 23059A   26185.56488902 -.00000012  00000+0  00000+0 0  9992
2 56367   0.0631 351.6921 0007715 116.1753 252.2166  5.00115472 59474
O3B MPOWER F3           
1 56368U 23059B   26185.59803990 -.00000012  00000+0  00000+0 0  9994
2 56368   0.0638 351.0790 0006695 109.6888 259.3074  5.00116628 55603
O3B MPOWER F5           
1 58346U 23175A   26185.69902826 -.00000012  00000+0  00000+0 0  9990
2 58346   0.0510  10.1090 0005381 111.5426 238.4007  5.00115927 50315
O3B MPOWER F6           
1 58347U 23175B   26185.59961118 -.00000012  00000+0  00000+0 0  9999
2 58347   0.0533   1.8509 0004450  98.6431 259.5558  5.00115843 49220
ASTRA 1P (SES-24)       
1 60086U 24115A   26183.74202802  .00000131  00000+0  00000+0 0  9991
2 60086   0.0604 342.3847 0000445 177.5391  47.2003  1.00270842  7354
O3B MPOWER F7           
1 62362U 24244A   26184.26676869 -.00000015  00000+0  00000+0 0  9991
2 62362   0.0667 345.0254 0005999 112.7798 262.2623  5.00115275 27334
O3B MPOWER F8           
1 62363U 24244B   26185.43305563 -.00000013  00000+0  00000+0 0  9990
2 62363   0.0143 350.9083 0005848 101.1107 268.0477  5.00115112 21737
O3B MPOWER F9           
1 64866U 25153A   26185.76623371 -.00000012  00000+0  00000+0 0  9995
2 64866   0.0602   7.1348 0006597 115.4379 237.4909  5.00115718 20442
O3B MPOWER F10          
1 64867U 25153B   26185.53237730 -.00000013  00000+0  00000+0 0  9992
2 64867   0.0575   3.5251 0002119 246.5701 109.8817  5.00114934 22908
